JCAT , SatcatLaunch_Tag Piece     , Type     , Name                        , PLName                      , LDate      , Parent      , SDate              , Primary, DDate              , Status Dest   , Owner       , State , Manufacturer, Bus              , Motor       , Mass     , DryMass   , TotMass  , Length, Diamete, Span   , Shape                    , ODate      , Perigee, Apogee, Inc   , OpOrbitOQU AltNames, STATUS, OBJECT_NAME             , OBJECT_ID , EPOCH                     , MEAN_MOTION, ECCENTRICITY, INCLINATION, RA_OF_ASC_NODE, ARG_OF_PERICENTER, MEAN_ANOMALY, EPHEMERIS_TYPE, CLASSIFICATION_TYPE, NORAD_CAT_ID, ELEMENT_SET_NO, REV_AT_EPOCH, BSTAR         , MEAN_MOTION_DOT, MEAN_MOTION_DDOT, LAST_UPDATED       , DATA_SOURCE               , TLE_LINE1                                                            , TLE_LINE2                                                            , N2YO_SAT_NAME              , TLE_FETCHED
19548, 19548 1988-091   1988-091B , P ---S-  , TDRS 3                      , TDRS C                      , 1988 Sep 29, S19550      , 1988 Sep 29 0444   , Earth  , -                  , O      -      , GSFC        , US    , TRW         , TDRS             , AOCS        , 2103     , 1673    ? , 2103     , 1.3   , 2.4    , 17.4   , Box + Dish + 2 Pan       , 1988 Oct 30, 35784  , 35797 , 0.01  , GEO/S  -           , ACTIVE, TDRS 3                  , 1988-091B , 2025-10-02T01:43:27.064128,  1.00262764, 0.00370287  ,     12.8004,       342.6971,          340.0896,      24.8757,            0.0, U                  ,      19548.0,          999.0,      12280.0, 0.0           , -2.92e-06      , 0.0             , 2025-10-04 23:19:22, planet4589.org + Celestrak, 1 19548U 88091B   25275.07184102 -.00000292  00000-0  00000-0 0  9991, 2 19548  12.8004 342.6971 0037029 340.0896  24.8757  1.00262764122801, TDRS 3                     , YES
19751, 19751 1989-001   1989-001C , P        , Kosmos-1989                 , Etalon PKA No. 1L           , 1989 Jan 10, S19753      , 1989 Jan 10 0620?  , Earth  , -                  , O      -      , NPOPM       , SU    , OAZ?        , Etalon           , -           , 1230     , 1230      , 1230     , 1.3   , 1.3    , 1.3    , Sphere                   , 1989 Feb  9, 19102  , 19149 , 64.87 , MEO    -   Glonass , ACTIVE, COSMOS 1989 (ETALON 1)  , 1989-001C , 2025-10-03T13:42:51.583968,  2.13156062, 0.00234431  ,     64.7967,        80.9811,          216.8194,     111.7078,            0.0, U                  ,      19751.0,          999.0,      28589.0, 0.0           , 6.8e-07        , 0.0             , 2025-10-04 23:19:22, planet4589.org + Celestrak, 1 19751U 89001C   25276.57143037  .00000068  00000-0  00000-0 0  9997, 2 19751  64.7967  80.9811 0023443 216.8194 111.7078  2.13156062285891, COSMOS 1989 (ETALON 1)     , YES
20026, 20026 1989-039   1989-039C , P        , Kosmos-2024                 , Etalon PKA No. 2L           , 1989 May 31, S20044      , 1989 May 31 1250?  , Earth  , -                  , O      -      , NPOPM       , SU    , NPOPM       , Etalon           , -           , 1230     , 1230      , 1230     , 1.3   , 1.3    , 1.3    , Sphere                   , 1989 Jul  1, 19099  , 19144 , 64.84 , MEO    -   Glonass , ACTIVE, COSMOS 2024 (ETALON 2)  , 1989-039C , 2025-10-03T09:56:30.717024,  2.13204522, 0.00203936  ,     65.0901,       319.376 ,          214.5627,     106.5546,            0.0, U                  ,      20026.0,          999.0,      28302.0, 0.0           , -6e-08         , 0.0             , 2025-10-04 23:19:22, planet4589.org + Celestrak, 1 20026U 89039C   25276.41424441 -.00000006  00000-0  00000-0 0  9992, 2 20026  65.0901 319.3760 0020394 214.5627 106.5546  2.13204522283020, COSMOS 2024 (ETALON 2)     , YES
20253, 20253 1989-077   1989-077A , P        , FLTSATCOM F8                , FLTSATCOM F8                , 1989 Sep 25, S20254      , 1989 Sep 25 0923   , Earth  , -                  , O      -      , SPAWAR      , US    , TRW         , FLTSATCOM        , Star 37FM   , 957      , 822       , 1928     , 1.3   , 2.4    , 13.2   , Hex Cyl + Dish + 2 Pan   , 1989 Oct 25, 35781  , 35786 , 4.98  , GEO/I  -   USA 46  , ACTIVE, FLTSATCOM 8 (USA 46)    , 1989-077A , 2025-10-03T13:46:51.714624,  1.00266679, 0.00046046  ,     12.494 ,       352.6918,          222.8076,     129.4086,            0.0, U                  ,      20253.0,          999.0,      25798.0, 0.0           , -3.61e-06      , 0.0             , 2025-10-04 23:19:22, planet4589.org + Celestrak, 1 20253U 89077A   25276.57420966 -.00000361  00000-0  00000-0 0  9995, 2 20253  12.4940 352.6918 0004605 222.8076 129.4086  1.00266679257988, FLTSATCOM 8 (USA 46)       , YES
20442, 20442 1990-005   1990-005G , P        , LUSAT-OSCAR-19              , Lusat                       , 1990 Jan 22, A04781      , 1990 Jan 22 0156   , Earth  , -                  , O      -      , AMLU        , AR    , AMNA        , Microsat         , -           , 12       , 12        , 12       , 0.2   , 0.2    , 0.2    , Box                      , 1990 Feb 21, 790    , 805   , 98.71 , LEO/S  -   LO-19   , ACTIVE, LUSAT (LO-19)           , 1990-005G , 2025-10-03T11:50:55.051872, 14.34002439, 0.00106911  ,     98.9007,       286.0506,          235.947 ,     124.0699,            0.0, U                  ,      20442.0,          999.0,      86560.0, 0.00017763871 , 4.49e-06       , 0.0             , 2025-10-04 23:19:22, planet4589.org + Celestrak, 1 20442U 90005G   25277.47053606  .00000371  00000-0  14963-3 0  9997, 2 20442  98.9007 287.0557 0010727 232.8464 127.1740 14.34003013865748, OSCAR 19 (LUSAT)           , YES
20580, 20580 1990-037   1990-037B , P ---S-  , Hubble Space Telescope      , Hubble Space Telescope      , 1990 Apr 24, S20579  2-11, 1990 Apr 25 1249?  , Earth  , 1990 Apr 25 1249?  , ATT    A04833 , GSFC        , US    , LMSC        , HST              , -           , 7547     , 7547      , 10843    , 13.1  , 4.3    , 13.1   , Step Cyl + 2 Pan         , 1990 May 24, 611    , 620   , 28.47 , LEO/I  -   NAIF048 , ACTIVE, HST                     , 1990-037B , 2025-10-03T14:47:52.797120, 15.2670294 , 0.00023464  ,     28.4693,        29.3001,          167.6788,     192.3864,            0.0, U                  ,      20580.0,          999.0,      74926.0, 0.00048028267 , 0.00013215     , 0.0             , 2025-10-04 23:19:22, planet4589.org + Celestrak, 1 20580U 90037B   25276.61658330  .00013215  00000-0  48028-3 0  9995, 2 20580  28.4693  29.3001 0002346 167.6788 192.3864 15.26702940749269, HST                        , YES
20776, 20776 1990-079   1990-079A , P        , Skynet 4C                   , Skynet 4C                   , 1990 Aug 30, S20778      , 1990 Aug 30 2306   , Earth  , 2003 Oct 24        , N      -      , MOD         , UK    , BAES        , ECS              , TE-M-700-19 , 1430     , 655       , 1430     , 2.1   , 1.9    , 16.0   , Box + 2 Pan              , 1990 Sep 30, 35785  , 35787 , 4.31  , GEO/I  -           , ACTIVE, SKYNET 4C               , 1990-079A , 2025-10-02T20:40:47.267616,  1.00276113, 0.0003443   ,     13.423 ,       351.5526,          199.6829,     164.2349,            0.0, U                  ,      20776.0,          999.0,      12831.0, 0.0           , 1.33e-06       , 0.0             , 2025-10-04 23:19:22, planet4589.org + Celestrak, 1 20776U 90079A   25275.86165819  .00000133  00000-0  00000-0 0  9999, 2 20776  13.4230 351.5526 0003443 199.6829 164.2349  1.00276113128317, SKYNET 4C                  , YES
20929, 20929 1990-095   1990-095A , P ------c, DSP F15                     , DSP 15                      , 1990 Nov 13, S20932      , 1990 Nov 13 0719?  , Earth  , -                  , O      GEO/S? , AFSSD2      , US    , TRW         , DSP B14          , MRE-4       , 2380     , 2200    ? , 2380    ?, 10.0  , 3.3    , 11.5   , Cyl + 4 Pan              , 2000 Mar 23, 35770  , 35803 , 4.00  , GEO/I  -   USA 65:U, ACTIVE, USA 65 (DSP 15)         , 1990-095A , 2025-10-03T09:52:10.232256,  0.98396213, 0.0003554   ,     14.1648,       345.8122,          123.6095,     288.0477,            0.0, U                  ,      20929.0,          999.0,       2294.0, 0.0           , -7e-08         , 0.0             , 2025-10-04 23:19:22, planet4589.org + Celestrak, 1 20929U 90095A   25276.41122954 -.00000007  00000-0  00000-0 0  9993, 2 20929  14.1648 345.8122 0003554 123.6095 288.0477  0.98396213 22940, USA 65                     , YES
21639, 21639 1991-054   1991-054B , P ---S-  , TDRS 5                      , TDRS-E                      , 1991 Aug  2, S21641      , 1991 Aug  3 0408?  , Earth  , -                  , O      -      , GSFC        , US    , TRW         , TDRS             , AOCS        , 2534     , 1700    ? , 2534     , 1.3   , 2.4    , 17.4   , Box + Dish + 2 Pan       , 1991 Sep  6, 35779  , 35787 , 0.10  , GEO/S  -           , ACTIVE, TDRS 5                  , 1991-054B , 2025-10-03T09:25:41.416608,  1.00272829, 0.00122267  ,     14.1032,       355.6575,          240.8476,     109.6519,            0.0, U                  ,      21639.0,          999.0,      12513.0, 0.0           , 9.1e-07        , 0.0             , 2025-10-04 23:19:22, planet4589.org + Celestrak, 1 21639U 91054B   25276.39284047  .00000091  00000-0  00000-0 0  9999, 2 21639  14.1032 355.6575 0012227 240.8476 109.6519  1.00272829125139, TDRS 5                     , YES
